NORAD_CAT_ID,OBJECT_NAME,OBJECT_TYPE,EPOCH,MEAN_MOTION,ECCENTRICITY,INCLINATION,RA_OF_ASC_NODE,ARG_OF_PERICENTER,MEAN_ANOMALY,BSTAR,MEAN_MOTION_DOT,MEAN_MOTION_DDOT,TLE_LINE0,TLE_LINE1,TLE_LINE2,SEMIMAJOR_AXIS,PERIOD,APOGEE,PERIGEE,DECAYED
55921.0,STARLINK-5861,PAYLOAD,2024-01-22 12:07:05,14.98332978,0.0002795,70.0005,103.9682,266.8964,93.1875,4.1992e-06,-4.3e-07,0.0,0 STARLINK-5861,1 55921U 23037H   24022.50492986 -.00000043  00000-0  41992-5 0  9998,2 55921  70.0005 103.9682 0002795 266.8964  93.1875 14.98332978 47412,6950.184,96.107,573.991,570.106,0.0
55921.0,STARLINK-5861,PAYLOAD,2024-01-22 15:19:21,14.98334848,0.0002787,70.0006,103.6319,267.1159,92.9681,2.4666e-05,2.01e-06,0.0,0 STARLINK-5861,1 55921U 23037H   24022.63844776  .00000201  00000-0  24666-4 0  9993,2 55921  70.0006 103.6319 0002787 267.1159  92.9681 14.98334848 47092,6950.178,96.107,573.98,570.106,0.0
55921.0,STARLINK-5861,PAYLOAD,2024-01-23 05:44:34,14.98332527,0.0002839,70.0005,102.1175,266.6851,93.3983,2.3439e-05,1.87e-06,0.0,0 STARLINK-5861,1 55921U 23037H   24023.23928816  .00000187  00000-0  23439-4 0  9998,2 55921  70.0005 102.1175 0002839 266.6851  93.3983 14.98332527 47188,6950.185,96.107,574.023,570.077,0.0
55921.0,STARLINK-5861,PAYLOAD,2024-01-23 12:09:06,14.98333637,0.0002787,70.0005,101.4433,266.4355,93.6485,7.2981e-05,7.78e-06,0.0,0 STARLINK-5861,1 55921U 23037H   24023.50632549  .00000778  00000-0  72981-4 0  9995,2 55921  70.0005 101.4433 0002787 266.4355  93.6485 14.98333637 47561,6950.182,96.107,573.984,570.11,0.0
55921.0,STARLINK-5861,PAYLOAD,2024-01-23 15:21:22,14.98336425,0.0002773,70.0006,101.107,266.0435,94.0407,6.9992e-05,7.42e-06,0.0,0 STARLINK-5861,1 55921U 23037H   24023.63984344  .00000742  00000-0  69992-4 0  9991,2 55921  70.0006 101.1070 0002773 266.0435  94.0407 14.98336425 47248,6950.173,96.107,573.965,570.111,0.0
55921.0,STARLINK-5861,PAYLOAD,2024-01-24 12:11:08,14.98321888,0.0002446,70.0012,98.9198,256.7934,103.2952,-1.5253e-05,-2.75e-06,0.0,0 STARLINK-5861,1 55921U 23037H   24024.50773536 -.00000275  00000-0 -15253-4 0  9991,2 55921  70.0012  98.9198 0002446 256.7934 103.2952 14.98321888 47713,6950.218,96.108,573.783,570.383,0.0
55921.0,STARLINK-5861,PAYLOAD,2024-01-24 13:47:16,14.98323403,0.0002441,70.0011,98.7512,256.7991,103.2896,-4.797e-05,-6.65e-06,0.0,0 STARLINK-5861,1 55921U 23037H   24024.57449565 -.00000665  00000-0 -47970-4 0  9994,2 55921  70.0011  98.7512 0002441 256.7991 103.2896 14.98323403 47383,6950.213,96.107,573.775,570.382,0.0
55921.0,STARLINK-5861,PAYLOAD,2024-01-24 15:23:25,14.98302296,0.0002352,70.0011,98.5828,258.6764,101.4131,0.00030989,3.604e-05,0.0,0 STARLINK-5861,1 55921U 23037H   24024.64126175  .00003604  00000-0  30989-3 0  9996,2 55921  70.0011  98.5828 0002352 258.6764 101.4131 14.98302296 47739,6950.279,96.109,573.778,570.509,0.0
55921.0,STARLINK-5861,PAYLOAD,2024-01-25 12:13:08,14.98333615,0.0002694,70.0002,96.3943,260.6506,99.4349,-1.0809e-05,-2.22e-06,0.0,0 STARLINK-5861,1 55921U 23037H   24025.50912872 -.00000222  00000-0 -10809-4 0  9994,2 55921  70.0002  96.3943 0002694 260.6506  99.4349 14.98333615 47869,6950.182,96.107,573.919,570.174,0.0
55921.0,STARLINK-5861,PAYLOAD,2024-01-25 13:49:16,14.98332433,0.0002685,70.0003,96.226,259.9136,100.172,9.515e-06,2.1e-07,0.0,0 STARLINK-5861,1 55921U 23037H   24025.57588876  .00000021  00000-0  95150-5 0  9992,2 55921  70.0003  96.2260 0002685 259.9136 100.1720 14.98332433 47535,6950.185,96.107,573.916,570.184,0.0
55921.0,STARLINK-5861,PAYLOAD,2024-01-26 13:51:17,14.98333209,0.0002682,69.9999,93.7005,262.9085,97.1769,0.00013681,1.54e-05,0.0,0 STARLINK-5861,1 55921U 23037H   24026.57728447  .00001540  00000-0  13681-3 0  9997,2 55921  69.9999  93.7005 0002682 262.9085  97.1769 14.98333209 47685,6950.183,96.107,573.912,570.184,0.0
55921.0,STARLINK-5861,PAYLOAD,2024-01-27 12:17:10,14.98329835,0.0002569,70.0003,91.3446,256.2327,103.8546,-5.156e-07,-9.9e-07,0.0,0 STARLINK-5861,1 55921U 23037H   24027.51192936 -.00000099  00000-0 -51560-6 0  9991,2 55921  70.0003  91.3446 0002569 256.2327 103.8546 14.98329835 48168,6950.193,96.107,573.844,570.273,0.0
55921.0,STARLINK-5861,PAYLOAD,2024-01-27 13:53:18,14.98330349,0.0002563,70.0004,91.1765,255.9859,104.1016,4.4163e-06,-4e-07,0.0,0 STARLINK-5861,1 55921U 23037H   24027.57868884 -.00000040  00000-0  44163-5 0  9994,2 55921  70.0004  91.1765 0002563 255.9859 104.1016 14.98330349 47832,6950.192,96.107,573.838,570.275,0.0
55921.0,STARLINK-5861,PAYLOAD,2024-01-28 13:55:19,14.98329355,0.0002564,70.0004,88.6509,257.5375,102.5497,-5.8214e-05,-7.87e-06,0.0,0 STARLINK-5861,1 55921U 23037H   24028.58009044 -.00000787  00000-0 -58214-4 0  9991,2 55921  70.0004  88.6509 0002564 257.5375 102.5497 14.98329355 47987,6950.195,96.107,573.842,570.278,0.0
55921.0,STARLINK-5861,PAYLOAD,2024-01-29 04:20:31,14.9833384,0.0002756,70.0,87.1356,264.1523,95.9322,5.9985e-05,6.23e-06,0.0,0 STARLINK-5861,1 55921U 23037H   24029.18092359  .00000623  00000-0  59985-4 0  9992,2 55921  70.0000  87.1356 0002756 264.1523  95.9322 14.98333840 48414,6950.181,96.107,573.961,570.131,0.0
55921.0,STARLINK-5861,PAYLOAD,2024-01-29 13:57:20,14.98334877,0.0002734,70.0,86.1258,263.3231,96.7617,6.7679e-05,7.15e-06,0.0,0 STARLINK-5861,1 55921U 23037H   24029.58148178  .00000715  00000-0  67679-4 0  9998,2 55921  70.0000  86.1258 0002734 263.3231  96.7617 14.98334877 48133,6950.178,96.107,573.943,570.143,0.0
55921.0,STARLINK-5861,PAYLOAD,2024-01-30 04:22:33,14.9832761,0.0002666,70.0,84.6102,263.8883,96.1973,3.6831e-05,3.46e-06,0.0,0 STARLINK-5861,1 55921U 23037H   24030.18232680  .00000346  00000-0  36831-4 0  9994,2 55921  70.0000  84.6102 0002666 263.8883  96.1973 14.98327610 48569,6950.2,96.107,573.918,570.212,0.0
55921.0,STARLINK-5861,PAYLOAD,2024-01-30 13:59:21,14.98327089,0.0002685,70.0,83.6005,263.4952,96.5901,2.2922e-05,1.81e-06,0.0,0 STARLINK-5861,1 55921U 23037H   24030.58288799  .00000181  00000-0  22922-4 0  9993,2 55921  70.0000  83.6005 0002685 263.4952  96.5901 14.98327089 48288,6950.202,96.107,573.933,570.201,0.0
55921.0,STARLINK-5861,PAYLOAD,2024-01-31 04:24:33,14.98333545,0.0002659,70.0,82.0859,261.1041,98.9817,-8.0181e-06,-1.89e-06,0.0,0 STARLINK-5861,1 55921U 23037H   24031.18372406 -.00000189  00000-0 -80181-5 0  9991,2 55921  70.0000  82.0859 0002659 261.1041  98.9817 14.98333545 48717,6950.182,96.107,573.895,570.199,0.0
55921.0,STARLINK-5861,PAYLOAD,2024-01-31 12:25:14,14.98332511,0.0002677,70.0,81.2443,261.2607,98.8249,-1.8275e-05,-3.11e-06,0.0,0 STARLINK-5861,1 55921U 23037H   24031.51752435 -.00000311  00000-0 -18275-4 0  9993,2 55921  70.0000  81.2443 0002677 261.2607  98.8249 14.98332511 48424,6950.185,96.107,573.911,570.19,0.0
55921.0,STARLINK-5861,PAYLOAD,2024-02-01 10:51:07,14.98325693,0.0002742,69.9999,78.8877,261.0695,99.0154,-1.7496e-06,-1.14e-06,0.0,0 STARLINK-5861,1 55921U 23037H   24032.45216829 -.00000114  00000-0 -17496-5 0  9995,2 55921  69.9999  78.8877 0002742 261.0695  99.0154 14.98325693 48903,6950.206,96.107,573.977,570.165,0.0
55921.0,STARLINK-5861,PAYLOAD,2024-02-01 12:27:15,14.98325772,0.0002746,69.9998,78.7194,261.5878,98.497,-1.3287e-06,-1.09e-06,0.0,0 STARLINK-5861,1 55921U 23037H   24032.51892846 -.00000109  00000-0 -13287-5 0  9999,2 55921  69.9998  78.7194 0002746 261.5878  98.4970 14.98325772 48575,6950.206,96.107,573.979,570.162,0.0
55921.0,STARLINK-5861,PAYLOAD,2024-02-02 10:53:08,14.98329791,0.0002781,69.9997,76.3627,260.0265,100.058,-1.5795e-06,-1.12e-06,0.0,0 STARLINK-5861,1 55921U 23037H   24033.45356643 -.00000112  00000-0 -15795-5 0  9993,2 55921  69.9997  76.3627 0002781 260.0265 100.0580 14.98329791 49058,6950.194,96.107,573.991,570.126,0.0
55921.0,STARLINK-5861,PAYLOAD,2024-02-02 12:29:16,14.98330189,0.000286,69.9994,76.1937,265.5507,94.5325,9.5522e-07,-8.2e-07,0.0,0 STARLINK-5861,1 55921U 23037H   24033.52032633 -.00000082  00000-0  95522-6 0  9993,2 55921  69.9994  76.1937 0002860 265.5507  94.5325 14.98330189 48724,6950.192,96.107,574.045,570.07,0.0
55921.0,STARLINK-5861,PAYLOAD,2024-02-03 12:31:17,14.98328625,0.0002916,69.9992,73.6682,266.1767,93.9059,3.4889e-05,3.23e-06,0.0,0 STARLINK-5861,1 55921U 23037H   24034.52172704  .00000323  00000-0  34889-4 0  9992,2 55921  69.9992  73.6682 0002916 266.1767  93.9059 14.98328625 49212,6950.197,96.107,574.089,570.035,0.0
55921.0,STARLINK-5861,PAYLOAD,2024-02-04 12:33:17,14.98336596,0.0002931,69.9992,71.1431,267.8997,92.1826,7.8639e-05,8.46e-06,0.0,0 STARLINK-5861,1 55921U 23037H   24035.52311955  .00000846  00000-0  78639-4 0  9997,2 55921  69.9992  71.1431 0002931 267.8997  92.1826 14.98336596 49362,6950.172,96.107,574.075,570.0,0.0
55921.0,STARLINK-5861,PAYLOAD,2024-02-05 04:34:38,14.98326991,0.0002762,69.9997,69.4601,269.2031,90.8812,4.0285e-06,-4.5e-07,0.0,0 STARLINK-5861,1 55921U 23037H   24036.19072703 -.00000045  00000-0  40285-5 0  9995,2 55921  69.9997  69.4601 0002762 269.2031  90.8812 14.98326991 49462,6950.202,96.107,573.987,570.148,0.0
55921.0,STARLINK-5861,PAYLOAD,2024-02-05 10:59:11,14.98327826,0.000275,69.9997,68.7867,268.8182,91.2662,1.2106e-05,5.1e-07,0.0,0 STARLINK-5861,1 55921U 23037H   24036.45776669  .00000051  00000-0  12106-4 0  9992,2 55921  69.9997  68.7867 0002750 268.8182  91.2662 14.98327826 49160,6950.2,96.107,573.976,570.153,0.0
55921.0,STARLINK-5861,PAYLOAD,2024-02-05 18:59:51,14.98330249,0.0002736,69.9997,67.945,269.8957,90.1888,-6.0281e-06,-1.65e-06,0.0,0 STARLINK-5861,1 55921U 23037H   24036.79156583 -.00000165  00000-0 -60281-5 0  9992,2 55921  69.9997  67.9450 0002736 269.8957  90.1888 14.98330249 49211,6950.192,96.107,573.959,570.156,0.0
55921.0,STARLINK-5861,PAYLOAD,2024-02-06 04:36:39,14.98333597,0.0002793,69.9995,66.9347,269.339,90.7449,-2.2341e-05,-3.6e-06,0.0,0 STARLINK-5861,1 55921U 23037H   24037.19212325 -.00000360  00000-0 -22341-4 0  9995,2 55921  69.9995  66.9347 0002793 269.3390  90.7449 14.98333597 49614,6950.182,96.107,573.988,570.106,0.0
